{"spkid": "50251540", "covariance": {"epoch": "2454036.5", "elements": [{"label": "e", "name": "e", "sigma": 1.10503696000691e-07, "title": "eccentricity", "value": ".590076144700953", "units": null}, {"label": "q", "title": "perihelion distance", "value": ".9656072754192958", "units": "au", "name": "q", "sigma": 2.50418353142803e-07}, {"label": "tp", "name": "tp", "sigma": 9.08634691940412e-05, "units": "TDB", "title": "time of perihelion passage", "value": "2454521.095723147288"}, {"label": "node", "value": "207.8031277725919", "title": "longitude of the ascending node", "units": "deg", "name": "om", "sigma": 0.000394603733261029}, {"label": "peri", "value": "69.61185387266991", "title": "argument of perihelion", "units": "deg", "name": "w", "sigma": 0.000394127826205819}, {"label": "i", "title": "inclination", "value": "3.134611751555975", "units": "deg", "name": "i", "sigma": 2.6628679201366e-05}], "data": [["1.221106682981323E-14", "-2.760715707684801E-14", "7.229789229873326E-12", "2.268539885234631E-12", "4.602835057002551E-13", "-5.43612237342907E-13"], ["-2.760715707684801E-14", "6.270935159075379E-14", "-1.541703273778021E-11", "-5.24049582578649E-12", "-6.089309552707139E-13", "1.217438644249592E-12"], ["7.229789229873326E-12", "-1.541703273778021E-11", "8.256170033976464E-9", "1.47442703058699E-9", "2.024424965947901E-9", "-4.467349635931994E-10"], ["2.268539885234631E-12", "-5.24049582578649E-12", "1.47442703058699E-9", "1.557121063035411E-7", "-1.546539082439359E-7", "-9.486329097958386E-9"], ["4.602835057002551E-13", "-6.089309552707139E-13", "2.024424965947901E-9", "-1.546539082439359E-7", "1.55336743389724E-7", "9.258305019175996E-9"], ["-5.43612237342907E-13", "1.217438644249592E-12", "-4.467349635931994E-10", "-9.486329097958386E-9", "9.258305019175996E-9", "7.090865560092598E-10"]], "labels": ["e", "q", "tp", "node", "peri", "i"]}, "elements": [{"label": "e", "value": ".5951109776831774", "title": "eccentricity", "units": null, "name": "e", "sigma": "1.173E-7"}, {"label": "a", "name": "a", "sigma": "3.6917E-8", "units": "au", "value": "2.348847479620713", "title": "semi-major axis"}, {"label": "q", "value": ".9510225595949632", "title": "perihelion distance", "units": "au", "sigma": "2.7113E-7", "name": "q"}, {"label": "i", "sigma": "2.6721E-5", "name": "i", "units": "deg", "value": "3.110824477483185", "title": "inclination; angle with respect to x-y ecliptic plane"}, {"units": "deg", "value": "206.0243901716049", "title": "longitude of the ascending node", "sigma": ".00040489", "name": "om", "label": "node"}, {"label": "peri", "units": "deg", "value": "71.89065033255878", "title": "argument of perihelion", "sigma": ".00040393", "name": "w"}, {"name": "ma", "sigma": "6.7097E-5", "units": "deg", "title": "mean anomaly", "value": "22.11991515139711", "label": "M"}, {"label": "tp", "units": "TDB", "title": "time of perihelion passage", "value": "2461119.709255808290", "name": "tp", "sigma": ".00024325"}, {"label": "period", "units": "d", "value": "1314.863448161949", "title": "sidereal orbital period", "sigma": "3.0998E-5", "name": "per"}, {"label": "n", "name": "n", "sigma": "6.4548E-9", "value": ".2737926896540053", "title": "mean motion", "units": "deg/d"}, {"sigma": "5.8886E-8", "name": "ad", "units": "au", "title": "aphelion distance", "value": "3.746672399646462", "label": "Q"}], "epoch": "2461200.5"}